GLOBALSTAR M094         
1 39074U 13005C   24179.74915434 -.00000102  00000+0  86735-5 0  9999
2 39074  51.9927 181.2765 0000220 206.5694 153.5161 12.62267356527617
GLOBALSTAR M096         
1 39075U 13005D   24179.52475400 -.00000096  00000+0  40640-4 0  9996
2 39075  52.0057 230.1989 0000636 172.9648 187.1227 12.62267304526508
GLOBALSTAR M078         
1 39076U 13005E   24179.73611289 -.00000220  00000+0 -64829-3 0  9991
2 39076  51.9892 314.5482 0001670 113.4968 246.6074 12.62271112525156
GLOBALSTAR M095         
1 39077U 13005F   24179.92040827 -.00000105  00000+0 -70282-5 0  9991
2 39077  51.9814 311.3562 0001345 132.8598 227.2382 12.62264093525032
GLOBALSTAR M087         
1 52888U 22064A   24179.71944194 -.00000115  00000+0  25008-4 0  9993
2 52888  51.9733 171.6555 0009593  32.3692 327.7796 13.37577185 98939
